address_id,address,city,postal_code,longitude,latitude
1,318 CHE DE ROUMAGOUA,LA CIOTAT,13600,5.6062495,43.1758591
2,19 RUE DES DAMES,SAINTE SAVINE,10300,4.0565359,48.2931517
3,22 RUE AMIRAL GUEPRATTE,LE CONQUET,29217,-4.7709059,48.3605295
4,6 BD DES ETINES,LE COTEAU,42120,4.09203,46.0205
5,35 AV DU 159EME RIA,BRIANCON,5100,6.6436313,44.8984037
6,36 RUE D EN HAUT,BRUNEMONT,59151,3.1413993,50.271708
7,1625 RTE DE CHAMBERY,SAINT-ISMIER,38330,5.8261521,45.2481677
8,3 RUE MONTESQUIEU,ASNIERES-SUR-SEINE,92600,2.2890454,48.9105948
9,35 RUE PORTE ST JEAN,ORLEANS,45000,1.9086066,47.9027336
10,67 BD COMMANDANT CHARCOT,NEUILLY-SUR-SEINE,92200,2.2695658,48.884683
11,32 RUE DE LA POTERNE,BULLY,69210,1.3704364,49.7269819
12,5 RUE DE LA PROMENADE,HOUSSAY,53360,0.9378451,47.7533632
13,20 RUE DE FENIDAN,CHARTRES-DE-BRETAGNE,35131,-1.7082369,48.0432406
14,117 RUE DES CHARMETTES,LYON 6EME,69006,4.8440199,45.765004
15,8 RUE DES CHATELLIERS,FOMPERRON,79340,-0.1093014,46.4761373
16,16 AV PIERRE LAROUSSE,MALAKOFF,92240,2.3019814,48.8211559
17,5 PL MARCEL PAGNOL,SAINT-NAZAIRE,44600,-2.2138905,47.2733517
19,65 AV JEAN MOULIN,DREUX,28100,1.3684254,48.7358807
20,2 RTE DU MOULIN,LES HAYS,39120,5.38942,46.9052
21,1 RUE DOCTEUR HOSPITAL,CLERMONT FERRAND,63100,3.0819427,45.7774551
22,43 AV FOCH,LA GARENNE-COLOMBES,92250,2.2465748,48.9069349
23,20 BD PDT FRANKLIN ROOSEVELT,BORDEAUX,33800,-0.5800364,44.841225
24,3 IMP LES JARDINS DE PAUL,RABASTENS-DE-BIGORRE,65140,0.1502485,43.3877994
25,13 RUE ALPHONSE DAUDET,MONTSOULT,95560,2.312001,49.0704484
26,19 RUE PELISSIER,CLERMONT FERRAND,63100,3.0819427,45.7774551
28,8 RUE CECILE BRUNSCHVICG,TOULOUSE,31200,1.4442469,43.6044622
29,24 AV DE LA SERANE,MARSEILLE 8EME,13008,5.3646989,43.3331411
30,261 AV SULLY,BETHUNE,62400,2.6402097,50.5292608
31,65 AV HENRI BARBUSSE,LE BLANC-MESNIL,93150,2.4631476,48.9385489
32,60 RUE LAFAURIE MONBADON,BORDEAUX,33000,-0.5800364,44.841225
33,13 RUE DES TANNERIES,NANCY,54000,6.1834097,48.6937223
34,7 RES DE LA VIERGE,EYGUIERES,13430,5.0297213,43.695131
36,614 AV DE MONTFERRAT,DRAGUIGNAN,83300,6.4627333,43.5374662
37,28 LOT MONT VERNON I,SAINT MARTIN,97150,-63.0467131,18.0814066
38,120 RUE ETCHENIQUE,BORDEAUX,33200,-0.5800364,44.841225
39,15 RUE DES PYRENEES,LISSES,91090,2.4237886,48.5960009
40,6 RUE DE LA TROMPETTE,LA ROCHELLE,17000,-1.1520434,46.1591126
41,25 BD DE L'EUROPE UNIE,RUOMS,7120,4.3405992,44.4537244
42,11 RTE DE LAVAL,SALINS,77148,3.0203102,48.4224933
43,26 RUE STE CROIX PELLETIERS,ROUEN,76000,1.0939658,49.4404591
44,122 BD DE STRASBOURG,CHOLET,49300,-0.8801349,47.0617293
45,5001 CHE DE ROUVROY LES MERLES,BRETEUIL,60120,2.2939649,49.6329792
46,1 RUE DU SACRE COEUR,LOURDES,65100,-0.0464975,43.0940904
47,51 RUE DES SABLONS,LE MANS,72100,0.1967849,48.0073849
48,4 AV DE SAINTONGE,LES ULIS,91940,2.1701573,48.681708
49,5 AV DOCTEUR FRANCOIS GOMMA,AX-LES-THERMES,9110,1.8379765,42.7193597
50,3 RUE DES ROCHES,BEAUMONT SAINT CYR,86490,0.4482795740759365,46.7253903
52,34 RUE COISNE ET LAMBERT,BAILLEUL,59270,2.7349286,50.7396668
53,1 ALL DES ANC COMBATTANTS,ASNIERES-SUR-SEINE,92600,2.2890454,48.9105948
54,105 RUE DE L OURCQ,PARIS 19,75019,106.6675532,20.8655311
55,9 RUE DES ECOLES,FERRIERE LA GRANDE,59680,3.9942662,50.2560051
56,95 AV DES FRERES ROUSTAN,VALLAURIS,6220,7.05859,43.5761001
57,25 RUE DES BOIS,SERGINES,89140,3.2602998,48.3401383
58,12 AV DES COTEAUX,CANNES,6400,7.0134418,43.5515198
59,32 BD DE VAUGIRARD,PARIS 15,75015,106.6697989,20.8686291
60,10 BD DES PROVINCES,SAINTE FOY LES LYON,69110,4.7934767,45.7362255
62,66 RUE FERRER,LE HAVRE,76600,0.1079732,49.4938975
63,40 RUE GEN DE GAULLE,BAYEL,10310,4.7760961,48.1984211
64,5 RUE GEORGES COLLIER,LORIENT,56100,-3.3660907,47.7477336
65,3 CHE DES BESSONS,MARSEILLE 14EME,13014,5.3990884,43.3309579
66,46 AV NEWBURN,CHOISY-LE-ROI,94600,2.4093664,48.7630238
67,84 RUE BIZET,VILLEJUIF,94800,2.3633048,48.7921098
68,5 RUE CHANOINE LUCIEN GABEN,ALBI,81000,2.147899,43.9277552
69,11 RUE AMPERE,LAMBERSART,59130,3.0223644,50.6477924
70,8 RUE MIREILLE CHRISOSTOME,SAINT-BRIEUC,22000,-2.7603283,48.5141134
71,13 RUE EMILE DUBOIS,PARIS 14,75014,106.6679011,20.8659186
72,39 RUE MALHERBE,LE HAVRE,76600,0.1079732,49.4938975
74,29 ALL DE COULANGES,LIVRY-GARGAN,93190,2.5298854,48.917335
75,102 AV DE VICHY,ABREST,3200,3.4450434,46.0980139
76,42 RTE DE MORET,NEMOURS,77140,2.6953079,48.268026
77,9 RUE DU PRE VERT,ROMANS-SUR-ISERE,26100,5.0528681,45.0458886
78,94 CRS DESBIEY,ARCACHON,33120,-1.1700018,44.6616428
79,1 RUE DES ECOSSAIS,TOURVILLE-SUR-ODON,14210,-0.5008333,49.1416667
80,11 RUE FAIDHERBE,AUXERRE,89000,3.570579,47.7961287
81,155 AV EUGENE VARLIN,VILLEPARISIS,77270,2.6176193,48.939344
82,23 RUE DU MOULIN,ETANG-SUR-ARROUX,71190,4.1852671,46.8671471
83,830 RTE DE VELLERON,MONTEUX,84170,4.9968733,44.0349281
84,1 RUE LUCIEN PIRON,ROSNY-SOUS-BOIS,93110,2.4875193,48.8716626
85,2 RTE DE LA MAIRIE,BERNEX,74500,6.6753169,46.3607868
86,123 AV DU GENERAL DE GAULLE,CHAMPIGNY-SUR-MARNE,94500,2.5107384,48.8137759
87,61 RUE JEAN MACE,BREST,29200,-4.4860088,48.3905283
88,7188 PL DE L'HOTEL DE VILLE,CHATEAUBOURG,35220,-1.3982411,48.1108554
89,23 RUE CLEMENCEAU,PONT A MOUSSON,54700,6.0547691,48.9025946
90,9 RUE DU CHARDONNAY,CAZOULS-LES-BEZIERS,34370,3.1013558,43.3918541
91,538 RUE DES SOURCES,SERMAISE,91530,-0.2122933,47.5251223
92,34 RUE DU QUATRE SEPTEMBRE,VALENCE,26000,-0.3763353,39.4697065
93,9001 VC RES LES RIVES DE DEAUVILLE,SAINT-ARNOULT,14800,1.819535,49.6320869
94,50 RUE DE L'AIGLON,WIMILLE,62126,1.6303277,50.7641091
95,5 RUE DU GROS MURGER,MAISONS-LAFFITTE,78600,2.1450951,48.9461437
96,1 MTE DE LA CROIX,LAIVES,71240,4.8467143,46.6452774
97,12 RUE LYDERIC,LILLE,59800,3.0635282,50.6365654
98,1270 RPE D ARDON,LAON,2000,3.620686,49.564665
99,4 RUE JEAN BACHELET,NEUILLY-PLAISANCE,93360,2.5060144,48.8608712
100,279 CHE DE LA FLACHE,FONTENAILLES,77370,2.953889,48.555306
103,5036 IMP DU RINQUANA,BISSY-SUR-FLEY,71460,4.6208765,46.6631688
104,33 RUE DU GEN DE GAULLE,L'AIGLE,61300,0.6278039,48.7651713
105,24 CHE JEAN POMIER,NARBONNE,11100,3.0042121,43.1837661
106,2 RUE DES THUYAS,VOULTON,77560,3.3342597,48.6175233
107,17 RUE MARIUS DELPECH,SARCELLES,95200,2.3796245,48.9960813
108,5787 CHE DE L'ESQUILLON,BEAUVOISIN,30640,4.3233989,43.7189318
109,46 BD DU GENERAL DE GAULLE,HENDAYE,64700,-1.7616499,43.3641518
110,16 PL VAUBAN,AVALLON,89200,3.9070658,47.4885365
111,713 AV DE PROVENCE,FREJUS,83600,6.7360182,43.4330308
112,13 RUE NATIONALE,CAMPENEAC,56800,-2.2924529,47.9586458
113,17 RUE DE VILLENEUVE,LES MOUTIERS-EN-RETZ,44760,-2.0009009,47.0628755
114,9 IMP DU CERS,LIMOUX,11300,2.2176533,43.0538068
115,20 RUE CHARLES LATERRADE,TALENCE,33400,-0.5879629,44.8088438
116,16 RTE DU MONT DORE LA GARANDIE,AYDAT,63970,2.9757079,45.6609027
117,40 CHE DU BOURGEON,LEGE-CAP-FERRET,33950,-1.1472098,44.7951052
118,3 AV PHILIPPE DE VOLVIRE,SENS-DE-BRETAGNE,35490,-1.5359128,48.332872
119,82 RUE LOUIS ROUQUIER,LEVALLOIS-PERRET,92300,2.2881683,48.892956
121,2 CHE DE LA MERLEBRISE,MALVILLE,44260,-1.8635782,47.3606366
122,30 RUE DES LICES MAZAN,CARPENTRAS,84200,5.0487681,44.0554043
123,5 RUE ELIE-VERNET,GRENOBLE,38000,5.7357819,45.1875602
125,4 ALL DU VIEUX CEDRE,SASSENAGE,38360,5.663687444649805,45.2066404
126,36 CHE DU PETIT CASTAING,MURET,31600,1.3262332,43.4599858
127,199 RUE JOLIOT CURIE,LYON 5EME,69005,4.7978696,45.7565519
128,12 RUE DE LA CROIX VERTE,CHAVAGNE,35310,-1.7881749,48.0539088
129,1 AV GABRIEL PERI,RUEIL-MALMAISON,92500,2.1802832,48.87778
130,6 RUE GUSTAVE RICHARD,SEGRE-EN-ANJOU BLEU,49500,-0.8715571,47.6811163
131,81 RUE DU FRESCHE BLANC,NANTES,44300,-1.5541362,47.2186371
132,10 RUE DE L EGLISE,MYENNES,58440,2.93365,47.44623
133,28 RUE DES BOIS,FONTAINEBLEAU,77300,2.7015872,48.4049375
134,25 RUE GABRIEL HAYES,NOGENT LE ROTROU,28400,0.8211488,48.321809
135,40 BD GAMBETTA,SANNOIS,95110,2.2568296,48.9717267
137,15 AV MALVESIN,COURBEVOIE,92400,2.2561602,48.8953328
138,17 IMP DE LA TOUCHE,MONTSURS,53150,-0.5522215177316291,48.137962900000005
139,6 RUE DE GOND,PADOUX,88700,6.5705655,48.2807909
140,31 RUE RICHARD DE FOURNIVAL,AMIENS,80090,2.2956951,49.8941708
141,11 RUE BLANQUI,MERICOURT,62680,2.8664217,50.4015803
142,1 TRA DE LA CARRAIRE,VALENSOLE,4210,5.9839867,43.8379283
143,78 RUE DE L ECHASSIER,COGNAC,16100,-0.3250175,45.6931647
144,22 RUE DE LA MAIRIE,DANGERS,28190,1.3502382,48.5091904
145,23 RUE DE THABERT,GONNEVILLE-LE THEIL,50330,-1.4740417483216572,49.620398550000004
146,12 RTE DE VESOUL,VELESMES-ECHEVANNE,70100,5.687467656062095,47.4181066
147,9001 SQ LAFAYETTE,COMPIEGNE,60200,2.8263171,49.4179497
148,139 RUE DE L ARTISANAT,VEZELIN-SUR-LOIRE,42260,4.061534494713143,45.886004
149,95 AV STALINGRAD,ARLES,13200,4.6309653,43.6776223
150,3 AV DE LA BARMASSA,VILLEFRANCHE-SUR-MER,6230,7.309969,43.7042317
151,377 CHE DES FUMADES,SAINT-CANNAT,13760,5.296775,43.6207231
152,17 IMP DES JARDINS,VALLEIRY,74520,5.967928,46.1079478
153,140 CHEM DE LAGROUNE,ANGRESSE,40150,-1.37342,43.65801
154,8 RUE DE LA BRIDE,AURILLAC,15000,2.4433101,44.9285441
155,488 RTE DE SONNEX,SAINT-LAURENT,74800,0.79977,43.3253
156,7 CHE DES MYRTES,BEAULIEU SUR MER,6310,7.33375,43.7088
157,11 RUE DU 11 NOVEMBRE 1918,LOUHANS,71500,5.2232175,46.6291425
158,9 PL DU HUIT MAI 1945,PIERRELAYE,95480,2.1557195,49.0231851
159,44 CHE DES MUSICIENS,GERARDMER,88400,6.8776965,48.0705772
160,175 ALL DES AMANDIERS,SAINT-CYR-SUR-MER,83270,5.711516,43.1810087
161,103 IMP DU BAGUIER,DRAGUIGNAN,83300,6.4627333,43.5374662
162,10 RUE DE NAVARIN,PARIS 09,75009,-51.4184074476139,-22.1216302
164,18 BD VITAL BOUHOT,NEUILLY-SUR-SEINE,92200,2.2695658,48.884683
165,147 BD DE STRASBOURG,NOGENT-SUR-MARNE,94130,2.4917292,48.8388009
166,14 PL DE LA REPUBLIQUE,CHALETTE-SUR-LOING,45120,2.738158032225153,48.021751800000004
167,92 AV ROGER SALENGRO,SAVIGNY-SUR-ORGE,91600,2.3458417,48.6794572
168,11 AV NAPOLEON 3,AJACCIO,20000,8.7376029,41.9263991
169,7 RUE DU PARADIS,AGEN,47000,0.6176112,44.2015827
170,640 AV DE BREDASQUE,AIX EN PROVENCE,13090,5.4474738,43.5298424
172,1013 RTE DE LEPLASSOTTE,PRECHACQ-LES-BAINS,40465,-0.9092859,43.7579965
173,49 RUE DES CARNETS,CLAMART,92140,2.2630292,48.800368
174,3 SQ MAZARINE,VANNES,56000,-2.7599079,47.6586772
175,9 RUE DU HUREPOIX,ABLIS,78660,1.8368758,48.517153
176,10 RUE DU PRE DE FOIRE,GRIMAUD,83310,6.5222979,43.2737698
177,2 AV DE L ACACIA,DRANCY,93700,2.4455201,48.9229803
179,10 RUE DES 4 VENTS,CABREROLLES,34480,3.12514,43.5445
180,313 BD ARISTIDE BRIAND,SAVIGNY-SUR-ORGE,91600,2.3458417,48.6794572
181,10 RUE DE LA HETRAIE,LE HAVRE,76620,0.1079732,49.4938975
182,57 RUE EDOUARD BRANLY,VALENCE,26000,-0.3763353,39.4697065
183,9 RUE DES SEUX,POUILLOUX,71230,4.3600234,46.607825
184,13 AV DU BARON ROUILLARD DE BEAU,LE COUDRAY,28630,1.5011729,48.4205915
185,280 RTE DE KERBERS,PLOUZANE,29280,-4.6212044,48.3817165
186,16 AV DES FRERES LUMIERE,BRY-SUR-MARNE,94360,2.5193322,48.8352872
187,39 RUE MAL DE LATTRE DE TASSIGNY,LE HAVRE,76600,0.1079732,49.4938975
188,4 RUE JOHN FITZGERALD KENNEDY,SAINT MAX,54130,6.2074377,48.7005548
189,12 RUE DES FLEURS,LAGNY-SUR-MARNE,77400,2.7056056,48.8773018
190,9 RUE AMEDEE GORDINI,LIMOGES,87280,1.2644847,45.8354243
191,292 BD FOSSE DEUX,ROUVROY,62320,2.9036734,50.393427
192,5344 CHE DE LA RAPAUDIERE,POLLIONNAY,69290,4.6607806,45.7659276
194,5 IMP DES FRICHOTS,EPIEDS,27730,3.4455556,49.1072222
195,7 RUE DES QUETEURS,TOULOUSE,31000,1.4442469,43.6044622
196,91 RUE PIERRE BROSSOLETTE,RUEIL-MALMAISON,92500,2.1802832,48.87778
197,70 RUE ANATOLE FRANCE,GRENOBLE,38100,5.7357819,45.1875602
198,2 ALL DES COQUELICOTS,VIEILLEVIGNE,44116,1.6577206,43.4021153
200,17 RUE DE MALTE,PARIS 11,75011,106.6679415,20.8672043
201,72 AV DU 11 NOVEMBRE 1918,BANDOL,83150,5.7523647,43.1357717
202,93 CHE ARIOLIA,BRISCOUS,64240,-1.3339998,43.4602151
203,40 RUE SAINT HONORE,AMIENS,80000,2.2956951,49.8941708
204,19 RUE HENRI VASSEUR,ARGENTEUIL,95100,2.2481797,48.9479069
205,2 RUE ANNE PAVAGEAU,AVORD,18520,2.6511406,47.0353206
206,14 QUAI DU DOLAIZON,VALS-PRES-LE-PUY,43750,3.8757116,45.0300955
207,66 RES LE LAMPARO,LEUCATE,11370,3.0270222,42.910007
208,16 RUE MONTOIR POISSONNERIE,CAEN,14000,-0.3635615,49.1813403
209,1072 RTE DE SAINT JEAN,ANTIBES,6600,7.10905,43.5836
210,33 RUE DU COMMANDANT ROLLAND,HERIMONCOURT,25310,6.8819894,47.4419332
211,4 TRA DE LA GIRONNE,MARSEILLE 8EME,13008,5.3646989,43.3331411
212,22 CHE DE LA PETITE COTE,MENAUCOURT,55500,5.3556748,48.650118
213,45 AV DE LA TABLE DE PIERRE,FRANCHEVILLE,69340,4.8817511,47.4542392
214,39 RTE NATIONALE 2 TAKAMAKA,SAINT PHILIPPE,97442,-73.4790045,45.3584499
215,80 RUE CURIAL,PARIS 19,75019,106.6675532,20.8655311
216,1671 RTE DE FLASSAN,VILLES-SUR-AUZON,84570,5.2338492,44.0582508
217,4 PAS MENDES FRANCE,BEAUCOURT,90500,6.9256448,47.4851387
218,20 RTE DES CHAMPS,THIERVILLE,27290,0.7166293,49.2663557
221,13 RUE DE LA DOLVE,TOURS,37000,0.6889268,47.3900474
222,13 RUE PONTCOTTIER,BOURGOIN-JALLIEU,38300,5.2828123,45.5872259
223,29 RUE DE BOD AVEL,LOCMINE,56500,-2.8362402,47.8874274
224,4 RUE FERME,VENDOME,41100,1.0662256,47.7934453
225,27 RUE DU MOULIN DAVID,LE GUE D ALLERE,17540,-0.8618852,46.1885136
226,207 CHE DES ECOLES,BIZONNES,38690,5.3792727,45.4541664
227,49 RUE DU VAL,PROVINS,77160,3.2988089,48.5602959
228,32 RUE DE BEAUFORT,PLERGUER,35540,-1.8461116,48.5272074
229,9 CHE DES COMBES,LE POUGET,34230,3.52403,43.5917
230,4 CITE BEL AIR,ETAPLES,62630,1.6386252,50.5139552
231,2 RTE DE CHAMPIGNY,TINQUEUX,51430,3.98601,49.2479
232,30 RTE DES COMBES,VAUJANY,38114,6.078412,45.1576422
233,3 RUE PRAIRIAL,CHENOVE,21300,5.00308,47.2932
235,185 ALL DE L'OPPIDUM,DIVONNE-LES-BAINS,1220,6.143049,46.3570916
236,20 RUE DU PROFESSEUR POZZI,PERIGUEUX,24000,0.7184407,45.1909365
237,16 RUE DU CLAPAS,CEBAZAN,34360,2.97109,43.405
238,2 PL DE L'EGLISE,IVRY-SUR-SEINE,94200,2.3872525,48.8122302
239,16 QUAI DES MARINIERS,NEMOURS,77140,2.6953079,48.268026
240,12 RUE DES MUES,SION LES MINES,44590,-1.5919675,47.7350228
241,35 RUE DE L ETANG,FEUCHEROLLES,78810,1.9723953,48.8725969
242,88 AV DE LA PLAGE,BENODET,29950,-4.1109828,47.8746373
243,15 AV ARISTIDE BRIAND,MONTESSON,78360,2.1492681,48.9076421
244,4 AV DE CARTHAGE,AIX EN PROVENCE,13100,5.4474738,43.5298424
246,13 RUE DE NAUDIN,CONDE LES HERPY,8360,4.2234152,49.5285593
247,248 RUE DE LA FICAUDIERE,PORNIC,44210,-2.1040102,47.1152695
248,21 RUE PASTEUR,BOULOGNE SUR MER,62200,1.6118771,50.7259985
249,32 RUE BASFROI,PARIS 11,75011,106.6679415,20.8672043
250,32 RUE DES ORMEAUX,PARIS 20,75020,106.6674407,20.8651077
251,6 SQ FONTAINE BELLERIE,BEAUVAIS,60000,2.0823355,49.4300997
252,6 RUE DES PENSEES,GOUSSAINVILLE,95190,2.4733628,49.0323168
253,5 RUE VICTOR HUGO,REUGNY,37380,2.61549,46.4635
255,18 RUE DE BESANCON,PONTARLIER,25300,6.3546345,46.9040348
256,317 RUE BAIXA DA BANHEIRA,PLAISIR,78370,1.9476363,48.817399
257,13 RUE DE MONTFLEURY,SARCELLES,95200,2.3796245,48.9960813
258,61 RUE GAMBETTA,LA ROCHELLE,17000,-1.1520434,46.1591126
259,20 RUE DU GENERAL LECLERC,PERENCHIES,59840,2.9744656,50.6679447
260,73 RUE JEAN BONAL,LA GARENNE-COLOMBES,92250,2.2465748,48.9069349
261,18 IMP DE LA CLOTTE,BERAT,31370,19.954381043129516,40.7049677
262,55 RUE VANEAU,PARIS 07,75007,22.2978661,60.3033531
263,9 RUE JULES GREVY,ROMILLY SUR SEINE,10100,3.7264161,48.5195734
264,7 RUE DE BRAM,LOUHANS,71500,5.2232175,46.6291425
265,61 RUE SAINT DIZIER,NANCY,54000,6.1834097,48.6937223
266,13 PL DE TRION,LYON 5EME,69005,4.7978696,45.7565519
267,31 ALL DU LUXEMBOURG,LE MANS,72000,0.1967849,48.0073849
268,32 RUE DES PYRENEES,LOURDES,65100,-0.0464975,43.0940904
269,6 RUE ERNEST RENAN,FITZ JAMES,60600,2.4283593,49.3918395
270,5386 RLE SAINT JEAN,BASSE POINTE,97218,-61.1135064,14.8682266
271,3 RUE D ORMESSON,DEUIL LA BARRE,95170,2.3275141,48.9756423
273,1 RUE DU NOROIT,BELFORET-EN-PERCHE,61130,0.4822233326530634,48.384084
275,178 CLOS LES PRIMEVERES,VIUZ-EN-SALLAZ,74250,6.4096733,46.148621
277,24 RUE DU HAUT MONT,ARCHETTES,88380,6.5339545,48.1247246
279,2 SEN MEREVILLE,CHESSY,77700,2.7658363,48.8798792
280,101 ALL DES GLYCINES,LA GARDE,83130,6.0449399,45.0691999
281,2 PL DE LA LIBERATION,BANNALEC,29380,-3.6981199,47.9325142
283,18 AV CHARLES DE GAULLE,LE BLANC-MESNIL,93150,2.4631476,48.9385489
284,16 RUE DES FOUGERES,BRETTE LES PINS,72250,0.3376029,47.9107685
285,5 RUE VAUTHIER,BOULOGNE-BILLANCOURT,92100,2.240206,48.8356649
286,1 RUE DES ECOLES,ST-LON-LES-MINES,40300,-1.127217,43.6121612
287,7 RUE RABELAIS,NARBONNE,11100,3.0042121,43.1837661
288,83 AV FRANCOIS MITTERAND,CHATEAUROUX,36000,1.6770956,46.8203785
289,136 BD DE LA PAIX,VANNES,56000,-2.7599079,47.6586772
290,8 RUE DAGOBERT,CLICHY,92110,2.30551,48.9026
291,29 RTE DE LA THIBAUDIERE TERVES,BRESSUIRE,79300,-0.4929017,46.8425572
292,4 RUE DE PLOMB,TENAY,1230,5.5089185,45.9182969
293,40 RUE ITSAS ONDO,URRUGNE,64122,-1.7003017,43.3624715
294,2 RUE DE LA GUEULE DU FOUR,BRETIGNOLLES-SUR-MER,85470,-1.8538889,46.6286111
295,2 RUE DU COLONEL FABIEN,ROMILLY SUR SEINE,10100,3.7264161,48.5195734
296,14 RUE JULES FERRY,MERIGNAC,33700,-0.6469599,44.8422361
297,42 RUE AMBROISE CROIZAT,VILLEJUIF,94800,2.3633048,48.7921098
298,6 RUE ELYSEE BENAVENQ,COURNONTERRAL,34660,3.7188857,43.557935
299,22 RUE RAISIN,SAINT-ETIENNE,42000,4.3873058,45.4401467
300,10 RUE DE LA PERRINE,VATAN,36150,1.809034,47.0714569
301,27 RUE DU SOUVENIR,THUIR,66300,2.7557657,42.6291282
302,23 RUE PUEBLA,PERIGUEUX,24000,0.7184407,45.1909365
303,31 RUE GENERAL MORAND,PERIGUEUX,24000,0.7184407,45.1909365
304,17 BD BELLES MANIERES,MONTARGIS,45200,2.7310072,47.9978628
306,83 RUE DE LA GARE,PLUVIGNER,56330,-3.0095755,47.7770909
307,9 RUE MAL LECLERC,LE BONO,56400,-2.947793,47.6402896
308,1 CHE DES BUISSONNETS,LISIEUX,14100,0.2255168,49.1460831
309,2 PL SAINT JEAN,LYON 5EME,69005,4.7978696,45.7565519
310,23 RUE BARATIER,ARGENTEUIL,95100,2.2481797,48.9479069
311,34 RUE DU GAL F. LEON ORMANCEY,VILLERON,95380,2.5406393,49.05765
312,34 AV DE FOIX,VARILHES,9120,1.6272972,43.0424295
313,6 RUE DU BOIS DE CLAQUET,MONDEVILLE,14120,-0.3202231,49.1771038
314,73 RUE CARNOT,SAUJON,17600,-0.9244473,45.6742681
315,9001 RES LES JARDINS OCCITANS,RAMONVILLE ST AGNE,31520,1.4749101,43.5460533
316,10 RUE DE LA FORET,CAMBOUNES,81260,2.43979,43.5861
317,23 CHE BARRIEU,BLAGNAC,31700,1.37799,43.6434
318,4 RUE FERNAND SABATTE,CHAMIGNY,77260,3.151646,48.9737096
319,69 AV VICTOR HUGO,LE BOUSCAT,33110,-0.5992399,44.8661755
320,37 ALL DES DAMES,TOURNON-SUR-RHONE,7300,4.832852,45.0675156
321,2 RUE COLETTE,TOULOUSE,31200,1.4442469,43.6044622
322,235 AV LE JOUR SE LEVE,BOULOGNE-BILLANCOURT,92100,2.240206,48.8356649
323,9100 RUE DU PDS DE LA FARINE,PRADES,66500,4.3160861,44.6382
324,181 AV COSTA DE BEAUREGARD,LA MOTTE SERVOLEX,73290,5.8767935,45.5984113
325,21 RUE DU MAL LATTRE DE TASSIGNY,SAULCY-SUR-MEURTHE,88580,6.9604301,48.2376936
326,6 RUE BRAULT,ANGERS,49100,-0.5515588,47.4739884
327,67 RUE DE LA PLAINE,ROQUEFORT,47310,0.6036111,43.7591667
328,489 RUE DE CAEN,IFS,14123,-0.3496385,49.1380679
329,84 RUE ST JACQUES,NANTES,44200,-1.5541362,47.2186371
330,152 CHE TISNE,ARGAGNON,64300,-0.6860784,43.4585148
331,37 RUE DU TEMPLE,LA ROCHELLE,17000,-1.1520434,46.1591126
332,4 RUE D ARGOAT,PLOUVORN,29420,-4.0229425,48.5778741
333,25 RUE PIERRE DE COUBERTIN,SAINT-PORCHAIRE,17250,-0.7851176,45.8213544
334,1 RUE FRATERNITE,NOGENT SUR OISE,60180,2.4676727,49.2744711
335,4 RUE DE BUZENVAL,SAINT-CLOUD,92210,2.219344,48.8437412
336,21 CHE DU LYCEE,LA ROCHE SUR FORON,74800,6.3121658,46.0672189
337,58 RUE DE GOUEDIC,SAINT-BRIEUC,22000,-2.7603283,48.5141134
338,96 RUE PASTEUR,ALBERTVILLE,73200,6.3925417,45.6754622
339,20 RUE DE L ABRIVADO,MILHAUD,30540,4.3084497,43.7896802
340,6 IMP DES MIMOSAS,LEZARDRIEUX,22740,-3.1064982,48.7867932
341,13 RTE D'ORGE,CHAULGNES,58400,3.103055,47.1286229
342,15 RUE PHILIPPE DE COMMYNES,AMIENS,80000,2.2956951,49.8941708
343,15 RUE DE LA RUCHE,LYON 3EME,69003,4.9018898,45.7109198
344,31 RUE DE MILLY,PERTHES,77930,2.555445,48.4758593
345,193 AV JACQUES DOUZANS,MURET,31600,1.3262332,43.4599858
346,26 RUE ELISABETH GELLY,LIBOURNE,33500,-0.2427217,44.9133742
347,2 RUE VICTOR HUGO,LACANAU,33680,-1.0784851,44.9776088
348,8 RUE GALPIN THIOU,TOURS,37000,0.6889268,47.3900474
349,4 MTE FLEURIE,BEAULIEU SUR MER,6310,7.33375,43.7088
350,46 RUE ROUBLOT,FONTENAY-SOUS-BOIS,94120,2.4749347,48.8490721
351,34 RUE HENRI BECQUEREL,SAINT-BRIEUC,22000,-2.7603283,48.5141134
352,45 ALL DES FEDES,LA CAVALERIE,12230,3.1572388,44.008237
353,49 RUE DES CARNETS,CLAMART,92140,2.2630292,48.800368
354,141 RUE ARISTIDE BRIAND,LEVALLOIS-PERRET,92300,2.2881683,48.892956
355,17 RUE DES ROMAINS,ANNECY,74370,6.1288847,45.8992348
356,20 RUE JACQUES HENRI LARTIGUE,ISSY-LES-MOULINEAUX,92130,2.273457,48.8250508
357,28 RUE DURAFOUR,RENNES,35000,-1.6800198,48.1113387
358,34 MTE DES CARRES,VIRIVILLE,38980,5.20332,45.3151
359,22 RUE DE BELFORT,CLICHY,92110,2.30551,48.9026
360,75 IMP DU PRE FALQUET,EPAGNY METZ-TESSY,74370,6.093513616324771,45.942964200000006
361,34 RUE PASTEUR,MESNIL-ESNARD (LE),76240,1.1391732,49.4119899
362,5 COTE DE FEUQUEROLLES,LES ANDELYS,27700,1.4215534,49.2469193
363,20 AV ROCHAMBEAU,GRENOBLE,38100,5.7357819,45.1875602
364,25 RUE DE LOIRE,NEVERS,58000,3.1577203,46.9876601
365,4 SQ JULES BASSET,ACHERES,78260,2.4491821,47.2774561
366,30 RUE BALAY,SAINT-ETIENNE,42000,4.3873058,45.4401467
367,10 RTE DU PLAT HAUT,VILLARS,42390,0.7542978,45.4202981
368,1 RUE DU COMMERCE,MONTPELLIER,34000,3.8767337,43.6112422
369,26 RUE PIERRE ET MARIE CURIE SP,DUNKERQUE,59430,2.3772525,51.0347708
370,10 CHE SAINT FRANCOIS D ASSISE,ROCHE SUR YON (LA),85000,-1.4269698,46.6705431
371,9126 CHE DES ARNAVAUX,ISTRES,13800,4.9884323,43.5139051
372,6 IMP DE LA JANELLE,GRAGNAGUE,31380,1.5841501,43.6819528
373,1 AV DE VILLACOUBLAY,MEUDON,92360,2.2385432,48.8126688
374,8 RUE DES ACACIAS,SAINT-BEAUZIRE,63360,3.1790056,45.8516333
375,12 RUE DES POIREAUX,PRIVAS,7000,4.5986733,44.7352708
377,37 AV DU MARECHAL LECLERC,LAVAL,53000,-0.7734022,48.0706687
378,2 RUE JEAN BONNARDEL,VILLENAVE D ORNON,33140,-0.5595029,44.7737872
380,3 PL DES FUSILLES,CALAIS,62100,1.8538446,50.9524769
382,27 RUE DELABY,DOUAI,59500,3.0804641,50.3675677
383,47 RUE JEAN JAURES,PLOUMAGOAR,22970,-3.1315516,48.544672
384,1140 RTE DE SAINT JEAN,ANTIBES,6600,7.10905,43.5836
385,58 RUE PAPU,RENNES,35000,-1.6800198,48.1113387
386,24 AV DE LA GARE,UZES,30700,4.4196718,44.0121279
387,127 RTE DE DIEPPE,MAROMME,76150,1.0308208,49.476737
388,13 RUE DE BRIANT,CLAYETTE (LA),71800,1.3965779,45.8863619
389,3 RUE DE LA POSTE,AZAY SUR CHER,37270,0.8463048,47.3482178
390,14 RUE DE SAINT OMER,WIZERNES,62570,2.2283996,50.709962
391,21 AV DES BAINS,BALARUC LE VIEUX,34540,3.6844938,43.4603178
392,9 BD PEREIRE,PARIS 17,75017,106.6663975,20.8647408
393,7 AV GALLIENI,MELUN,77000,2.6608169,48.539927
394,1056 CHE DES CAMPELIERES,MOUGINS,6250,6.9963543,43.6008898
395,24 AV CLAUDE MONET,MARSEILLE 14EME,13014,5.3990884,43.3309579
396,6 AV DE LA GARE,AVIGNON,84000,4.8059012,43.9492493
397,26 RUE DES FRERES MOSTADE,PLESCOP,56890,-2.8062224,47.6980235
398,30 RUE PERRAULT,LIMOGES,87000,1.2644847,45.8354243
399,2 RUE BARBAUD,PONTARLIER,25300,6.3546345,46.9040348
400,32 RUE RASPAIL HELLEMMES,LILLE,59260,3.0635282,50.6365654
401,13 AV JOHN KENNEDY,OIGNIES,62590,2.99387,50.4643
402,43 RUE PHILIBERT,SAINT DENIS,97400,2.3580232,48.935773
403,40 AV DE L HERMITAGE,ESPALY-SAINT-MARCEL,43000,3.8657896,45.0465143
404,1 RUE DU HAUT DU BOIS,LERRAIN,88260,6.148,48.1441
405,9004 AV HENRI BECQUEREL,MERIGNAC,33700,-0.6469599,44.8422361
406,651 CHE DE ST ELOI,LA CIOTAT,13600,5.6062495,43.1758591
407,12 RUE DU LT COL ANDRE BORDEREAUX,MOUZON,8210,0.6148164,45.8058911
408,9001 RUE DE CHARENTE,ST-HERBLAIN,44800,-1.6346964,47.2233007
409,60 RUE JEAN CALOT,TERRE DE HAUT,97137,-61.5821543,15.8680707
410,19 VTE VIEILLE RTE DE MONS,DONNEMARIE-DONTILLY,77520,3.1288116,48.4793547
411,58 RUE DES BELLES HATES,ERAGNY-SUR-OISE,95610,2.099537,49.0178814
412,6779 CHE DE RACLEBOURSE,SAINT-DENIS-D'OLERON,17650,-1.3775,46.033611
414,95 RUE DENFERT ROCHEREAU,SAINT QUENTIN,2100,3.2876843,49.8465253
416,310 RTE DE CALVISSON,CALVISSON,30420,4.1900505,43.7853458
417,8 BD DE CHINON,JOUE LES TOURS,37300,0.6622353,47.3511161
418,9001 RES LA COUPIANE,LA VALETTE DU VAR,83160,5.9834654,43.1378245
419,7 RUE DU BOIS DU CHATEAU,LORIENT,56100,-3.3660907,47.7477336
420,96 RTE PRE CHATELAIN,SAINT-SAVIN,38300,-0.4464038,45.139407
421,83 RUE JEAN JACQUES ROUSSEAU,LIBOURNE,33500,-0.2427217,44.9133742
422,433 RTE DE LA SALLE DES FETES,CASTELS ET BEZENAC,24220,1.0727297350171534,44.8644841
423,8 RUE MARECHAL FOCH,CLERMONT FERRAND,63000,3.0819427,45.7774551
424,29 MTE DE LA CASTAGNETTE,SAINT-PRIVAT,7200,3.42558,43.7535
425,38 RUE PAUL BERT,GIEN,45500,2.6313889,47.6918575
426,33 BD SAINT SIMON,DRANCY,93700,2.4455201,48.9229803
427,3 BD FEART,DINARD,35800,-2.0580178,48.6320379
428,472 RTE DES EPINETTES ST M.LOUPS,JULLOUVILLE,50610,-1.5658162,48.7713045
429,8 RTE DU LAVOIR - PRETOT,MONTSENELLE,50250,-1.4438866076132943,49.305319749999995
430,22 CHE DU PRAZILLON,SAINT-NAZAIRE,44600,-2.2138905,47.2733517
431,57 CHE COMMINS,SAINT DENIS,97417,2.3580232,48.935773
432,12 RUE LAVOISIER,ST JEAN DE BRAYE,45800,1.9737186,47.9200018
434,1 RUE RENOU,ANGERS,49100,-0.5515588,47.4739884
435,2361 RUE DE MACON,MONTMERLE-SUR-SAONE,1090,4.7614129,46.0840019
436,1 RUE DE NEROTTE,BOURGNEUF,17220,-1.0233867,46.1663507
437,17 AV DE LA CONCORDE,DIJON,21000,5.0414701,47.3215806
438,12 RUE HENRI PROVOSTIC,PLOUDALMEZEAU,29830,-4.6576826,48.5410278
439,11 RUE SALVADOR ALLENDE,AIGUES-VIVES,30670,2.5338256,43.2310412
440,1 RUE HUGO ELY ZAC,AIX EN PROVENCE,13090,5.4474738,43.5298424
441,1 RUE DE STRASBOURG,EPINAY SUR SEINE,93800,2.3145039,48.9525181
442,129 RUE DE LA REPUBLIQUE,HAUTS DE BIENNE,39400,6.0234986,46.520336
443,13 QUAI HENRI MATISSE,WASQUEHAL,59290,3.1312447,50.6691577
444,5000 RES LE SCOTTISH,CAMIERS,62176,1.61441,50.5638
445,46 AV DES FRENES,MONTEVRAIN,77144,2.748344,48.8741286
446,6 RUE DE BOULOGNE,LILLE,59800,3.0635282,50.6365654
447,62 AV VICTOR HUGO,TULLE,19000,1.7706797,45.2678347
448,1555 RTE DU CHEF LIEU,MARLIOZ,74270,6.0025134,46.0325353
449,9004 ALL DU GENERAL RULLIERE,SAINT-ETIENNE,42100,4.3873058,45.4401467
450,11 RUE DE L ALLEE,CALLAC,22160,-3.426315,48.4049107
451,32 RUE DE LA FORET,HERMERAY,78125,1.6754516,48.6373985
452,26 RUE ANDRE CHENIER,ISSY-LES-MOULINEAUX,92130,2.273457,48.8250508
453,40 AV LEON BLUM,MERIGNAC,33700,-0.6469599,44.8422361
454,44 AV DU MIDI,ALLASSAC,19240,1.4755597,45.257248
455,26 RUE DES CASSONS,BAYET,3500,3.2687241,46.2476257
457,5 IMP LOUIS GUILLOUX,MONTIVILLIERS,76290,0.192418,49.5456435
458,41 RUE CONSTANTIN,BORDEAUX,33000,-0.5800364,44.841225
459,6 RUE FRANCHE,COURNON D AUVERGNE,63800,3.1962804,45.7392306
460,59 RUE DE LYON,BREST,29200,-4.4860088,48.3905283
461,8 AV DES CHENES,BEAUVAIS,60000,2.0823355,49.4300997
462,13 IMP NOTRE DAME DU MAI,LA VALETTE DU VAR,83160,5.9834654,43.1378245
463,94 AV DE LA GARE,LE BUGUE,24260,0.9273347,44.9180694
464,12 CHE LE CARREROT,NESTIER,65150,0.4794276,43.0625037
465,7 RUE DE LA DHEUNE,ESSERTENNE,71510,4.5451375,46.8128798
466,9001 RES BELLEVUE CLEMENCEAU,BIARRITZ,64200,-1.552726590666314,43.471143749999996
467,8075 RES LES JARDINS DE LA BAIE,CAVALAIRE-SUR-MER,83240,6.531917,43.1722952
468,31 RUE DU MOULIN COLLET,PELLERIN (LE),44640,5.9215336,45.5794128
469,21 CHE DE LA BOUSQUIE,ROUFFIAC,81150,-0.4912752,45.6860002
470,5 ALL DES BERGES,LAGNY-SUR-MARNE,77400,2.7056056,48.8773018
471,199 RUE COLBERT,LILLE,59800,3.0635282,50.6365654
472,39 AV GERMAINE,EPPEVILLE,80400,3.0512443,49.7413575
473,8 IMP DU MOULIN,PIERREFITTE-ES-BOIS,45360,2.7162662,47.5073026
474,23 IMP BAOBAB,SAINT-BENOIT,97470,5.594566080903155,45.69036035
475,136 RUE DES CHAMPARONS,COLOMBES,92700,2.2543577,48.922788
476,74 RUE DU TEMPLE,PARIS 03,75003,3.4291968,46.1268765
477,17 CHE DE SAINT JAMES,CORNEBARRIEU,31700,1.3225828,43.6479976
479,29 RUE DES GOUTTIERES,SAINT-FLORENTIN,89600,3.7280106,48.00172
480,44 QUAI NICOLAS ROLIN,DIJON,21000,5.0414701,47.3215806
482,9194 RUE DU STADE,BALARUC LES BAINS,34540,3.679545,43.4444987
483,130 RUE DES SOURCES,ANSE,69480,4.7170072,45.9364662
484,18 AV PAUL MICHONNEAU,ARRAS,62000,2.7772211,50.291048
485,98 RUE GABRIEL PERI,FONTENAY-SOUS-BOIS,94120,2.4749347,48.8490721
486,57 RUE DES CANADIENS BIHOREL,BIHOREL,76420,1.1159756,49.4543405
487,8 RUE FRANCIS GUEZENNEC,LESNEVEN,29260,-4.3235917,48.5718493
488,5 RUE DE LA BOUCHERIE,VANNES,56000,-2.7599079,47.6586772
489,40 RUE BOTTOLIER,EVREUX,27000,1.1510164,49.0268903
490,54 RUE PAUL LAFARGUE,PARAY-VIEILLE-POSTE,91550,2.3637838,48.7126093
491,13 RUE MARCELLIN CHAMPAGNAT,SAINT-ETIENNE,42100,4.3873058,45.4401467
492,3 RES DE PARK AR CHR'A,SAINT-QUAY-PERROS,22700,-3.4470386,48.7923337
493,29 RUE DU PORCHE,CHATEAUGIRON,35410,-1.5009120306356485,48.042376399999995
494,5218 CHE DE L ARGILE,MARSEILLE 10EME,13010,5.4089257,43.2831109
495,20 RUE DES VIGNES NOIRES,AUCHAY-SUR-VENDEE,85200,-0.8673964374935454,46.43648415
496,293 RUE DE ROSNY,MONTREUIL,93100,1.7631125,50.4638918
497,2 RUE DU FIER,ANNECY,74960,6.1288847,45.8992348
498,246 CRS DE LA MARNE,BORDEAUX,33800,-0.5800364,44.841225
499,10 CITE DU CALVAIRE,LAROQUEBROU,15150,2.1911658,44.967739
500,17 BD CHRISTOPHE MONCADA,MARSEILLE 15EME,13015,5.3716172,43.3426411
501,4 RUE NATIONALE,ISSOU,78440,1.7924733,48.988093
502,24 RUE DES LILAS,RICHARDMENIL,54630,6.1695329,48.5943832
503,5 AV MEISSONIER,POISSY,78300,2.0428293,48.927439
504,54 RTE DU COL DE LA LUERE,GREZIEU-LA-VARENNE,69290,4.6911795,45.7479355
505,15 AV DUFAU,PAU,64000,-0.3685668,43.2957547
506,16 RUE MARIE CHAMOUX,GRENOBLE,38100,5.7357819,45.1875602
507,19 RUE JEAN SEBASTIEN BACH,LISIEUX,14100,0.2255168,49.1460831
508,2 ALL DES PERVENCHES,ANDERNOS-LES-BAINS,33510,-1.0925184,44.7476897
509,102 GAL DE L'ARLEQUIN,GRENOBLE,38100,5.7357819,45.1875602
510,107 AV PAUL DOUMER,MONTESSON,78360,2.1492681,48.9076421
511,53 BD ALEXANDRE 3,DUNKERQUE,59140,2.3772525,51.0347708
512,21 AV KLEBER,DUNKERQUE,59240,2.3772525,51.0347708
513,9003 RUE DE LA FOSSE,ETAIS,21500,4.4375531,47.7070411
514,19 RUE ANDRIOLI,NICE,6000,7.2683912,43.7009358
515,34 RUE DU GENERAL LECLERC,ST LEU LA FORET,95320,2.2480799,49.0212001
516,180 RUE SADI CARNOT,SAINT-ANDRE,59350,0.8514079,43.273316
517,41 CHE DES FEUTRES DU TOULON,PERIGUEUX,24000,0.7184407,45.1909365
518,62 BD PAUL MONTEL,NICE,6200,7.2683912,43.7009358
519,57 CHE COMMINS,SAINT DENIS,97417,2.3580232,48.935773
520,1 AV DARBLAY,MENNECY,91540,2.4347044,48.5666645
521,1 RUE D ATHENES,BELFORT,90000,6.8628942,47.6379599
522,23 RUE DE NOAILLES,VERSAILLES,78000,2.1266886,48.8035403
523,15 RUE CECILE DUPARC,BEZONS,95870,2.2105491,48.9250016
525,7 RUE MADAME DE SEGUR,VANNES,56000,-2.7599079,47.6586772
526,9 ALL DES ROSSIGNOLS,PORT DE BOUC,13110,4.9806998,43.403098
527,62 CHE DES AMOUREUX,LUNEL,34400,4.1348062,43.6745265
528,526 IMP DE LA COMBE,VEYRAS,7000,4.5629984,44.7290012
529,115 RTE DE L ANC. LAITERIE RUFFIGN,LA CRECHE,79260,-0.2970798,46.3624398
530,1 RUE DE LA MALMAISON,GONESSE,95500,2.4500537,48.9863555
531,4 ALL DES MIMOSAS,CLAPIERS,34830,3.8868606,43.6567216
533,206 RTE DU HAUT DE GRANNOD,SORNAY,71500,5.179582,46.6263406
535,20 CHE DE LA CREMADE,LA FARE LES OLIVIERS,13580,5.1922962,43.5503885
536,6 IMP DE LA GRIVE,DOMERAT,3410,2.5368661,46.359995
537,7 RUE CHARLES-LAURENT,RENNES,35000,-1.6800198,48.1113387
538,12 RUE DES BERCEAUX,COURLON SUR YONNE,89140,3.1666834,48.3385316
539,29 RUE NATIONALE,ROYAT,63130,3.0477919,45.7643631
540,9 ALL SULLY,ECHIROLLES,38130,5.71927,45.1437
541,13 RUE DAVOT,AUXONNE,21130,5.3882954,47.1936509
542,7 RUE ANDRE THEURIET,MARLY-LE-ROI,78160,2.0965935,48.8681762
543,11 RUE GRUA ROUCHOUSE,SAINT-ETIENNE,42100,4.3873058,45.4401467
544,4 RUE DE L ILE,LOUVIERS,27400,1.1646335,49.2157245
545,280 CHE DE LA RATERIE,MOYAUX,14590,0.3566372,49.1954825
546,4 RUE PHILIPPE LEBON,CLERMONT FERRAND,63000,3.0819427,45.7774551
548,5027 RTE DEPARTEMENTALE 918,ASCAIN,64310,-1.620839,43.3449393
549,10 RUE COLETTE,LAMBALLE-ARMOR,22400,-2.4724248506929793,48.48593005
550,760 RTE DU CHEF LIEU,ALLONZIER-LA-CAILLE,74350,6.1185532,46.0001467
551,455 PROM DES ANGLAIS,NICE,6200,7.2683912,43.7009358
552,52 RUE AUGUSTIN MONDON,SAINT-JOSEPH,97480,-1.529802,49.5344534
553,3 RUE EMILE KAHN,LE BLANC-MESNIL,93150,2.4631476,48.9385489
554,450 CHE DES COMBES,ANTIBES,6600,7.10905,43.5836
555,7 RUE AU MAIRE,PARIS 03,75003,3.4291968,46.1268765
556,620 CHE DU PEYRUGAL,SAINTE-GEMME,81190,3.6700564,49.1413869
557,34 RUE DE LA VOLONTE,CLERMONT FERRAND,63100,3.0819427,45.7774551
558,12 BD BOYER,MARSEILLE 3EME,13003,5.3990665,43.2976147
559,4 RUE ANATOLE FRANCE,AUTERIVE,31190,1.4775095,43.3524028
560,24 RTE DE PENHOET,TRIGNAC,44570,-2.1894926,47.3176944
561,87 BD JEAN BRUNHES,TOULOUSE,31300,1.4442469,43.6044622
562,2 ALL DE BERNE,RENNES,35200,-1.6800198,48.1113387
563,79 RUE DE LA NORMANDELIERE,BRETIGNOLLES-SUR-MER,85470,-1.8538889,46.6286111
564,6 RUE DU ONZE NOVEMBRE,BORDEAUX,33000,-0.5800364,44.841225
565,12 RUE JACQUARD,LE HAVRE,76620,0.1079732,49.4938975
566,38 BD DE VERDUN,BEZIERS,34500,3.2131307,43.3426562
567,51 RUE AMBROISE THOMAS,ARGENTEUIL,95100,2.2481797,48.9479069
568,131 AV FELIX FAURE,LYON 3EME,69003,4.9018898,45.7109198
569,53 AV PAUL VAILLANT COUTURIER,VILLEJUIF,94800,2.3633048,48.7921098
570,55 BD DE MASSANE,BAILLARGUES,34670,4.0133114,43.6609569
571,12 PL LOUIS COULANGE,LAVAL,53000,-0.7734022,48.0706687
573,116 AV KUHLMANN,LOOS,59120,3.0162523,50.6092082
574,18 RUE DE COULON,SAINT-REMY,79410,6.8283249,48.3476386
575,2 IMP DE LA BREDE,SAINT-NAZAIRE,44600,-2.2138905,47.2733517
576,71 RUE CLOVIS,REIMS,51100,4.031926,49.2577886
578,703 RUE JEAN JAURES,MEUSNES,41130,1.4988676,47.2508617
579,36 RUE ROGER SALENGRO,LE BOUSCAT,33110,-0.5992399,44.8661755
580,163 AV ROGER SALENGRO,VILLEURBANNE,69100,4.8868454,45.7733573
581,12 AV DANIELLE MITTERRAND,BEGLES,33130,-0.5488542,44.8074559
582,20 RUE DE METZ,LANTEFONTAINE,54150,5.9092,49.2503
583,24 BD DU FIER,ANNECY,74000,6.1288847,45.8992348
584,80 ALL MARIE SAGNIER,MONTPELLIER,34000,3.8767337,43.6112422
585,3 ALL DE LA SIXIEME HEURE,AMIENS,80000,2.2956951,49.8941708
586,9001 RES VILLAGE DU SOLEIL,AIX EN PROVENCE,13540,5.4474738,43.5298424
587,39 RUE ALEXANDRE FOURNY,CHAMPIGNY-SUR-MARNE,94500,2.5107384,48.8137759
588,46 RUE PRINCIPALE,VEIGNE,37250,0.7409855,47.2869884
589,16 RUE HAUTE,RUEIL-MALMAISON,92500,2.1802832,48.87778
590,1 RUE DES FUSILLES,ARMENTIERES,59280,2.882169,50.6867281
591,4 AV DU PORT,GRAY,70100,5.5919867,47.4455642
592,74 PL DE LA BONANCE,GRUISSAN,11430,3.086422,43.1050181
593,8 CHE DES CAILLEROTTES,VERINES,17540,-0.9645614,46.1927243
594,34 BD PIERRE SOLA,NICE,6300,7.2683912,43.7009358
596,124 BD LOBAU,NANCY,54000,6.1834097,48.6937223
597,3 IMP EUGENE LEJANNE,ROCHE SUR YON (LA),85000,-1.4269698,46.6705431
598,10 RUE DES JARDINS,GOUVIX,14680,-0.3035501,49.0348107
599,23 RUE DE SEDAN,DOUAI,59500,3.0804641,50.3675677
600,6 RUE MARC SANGNIER,ARPAJON,91290,2.4570176,44.9034428
601,20 RUE COLI,MONTREUIL,93100,1.7631125,50.4638918
602,6 AV JEAN JAURES,FEURS,42110,4.2215124,45.7440738
603,1 RUE HENRI RENAUDIN,CHARLEVILLE-MEZIERES,8000,4.7206939,49.7735712
604,2 RUE DE LYON,EPINAY SUR SEINE,93800,2.3145039,48.9525181
605,4 RUE DENIS PAPIN,BLAIN,44130,-1.7643647,47.4755536
